start=new Date('2023-04-11T00:00:00.000Z').valueOf();
sats=[{"MEAN_MOTION_DOT":"-0.00000299","REV_AT_EPOCH":"1197","OBJECT_NAME":"STARLINK-5060","OBJECT_ID":"2023-014Y","DECAY_DATE":null,"ELEMENT_SET_NO":"999","MEAN_MOTION":"15.69944555","CLASSIFICATION_TYPE":"U","EPOCH":"2023-04-10T16:30:00.908064","PERIAPSIS":"356.669","MEAN_ANOMALY":"100.3834","BSTAR":"-0.00000071203000","APOAPSIS":"361.446","MEAN_ELEMENT_THEORY":"SGP4","MEAN_MOTION_DDOT":"0.0000000000000","TIME_SYSTEM":"UTC","CENTER_NAME":"EARTH","TLE_LINE2":"2 55413  69.9998 255.6913 0003545 259.6962 100.3834 15.69944555 11977","LAUNCH_DATE":"2023-01-31","EPHEMERIS_TYPE":"0","RA_OF_ASC_NODE":"255.6913","NORAD_CAT_ID":"55413","REF_FRAME":"TEME","GP_ID":"229883184","SITE":"AFWTR","OBJECT_TYPE":"PAYLOAD","SEMIMAJOR_AXIS":"6737.193","RCS_SIZE":"LARGE","FILE":"3885363","INCLINATION":"69.9998","PERIOD":"91.723","COUNTRY_CODE":"US","ARG_OF_PERICENTER":"259.6962","ECCENTRICITY":"0.00035450","TLE_LINE1":"1 55413U 23014Y   23100.68751051 -.00000299  00000-0 -71203-6 0  9998"},{"TLE_LINE2":"2 55414  69.9980 255.6915 0002670 262.9982  97.0910 15.69941765 11975","MEAN_MOTION_DDOT":"0.0000000000000","TIME_SYSTEM":"UTC","CENTER_NAME":"EARTH","MEAN_ELEMENT_THEORY":"SGP4","APOAPSIS":"360.864","BSTAR":"0.00002270900000","PERIAPSIS":"357.267","MEAN_ANOMALY":"97.0910","CLASSIFICATION_TYPE":"U","EPOCH":"2023-04-10T16:30:46.138464","MEAN_MOTION":"15.69941765","ELEMENT_SET_NO":"999","DECAY_DATE":null,"OBJECT_ID":"2023-014Z","OBJECT_NAME":"STARLINK-5620","REV_AT_EPOCH":"1197","MEAN_MOTION_DOT":"0.00002521","ECCENTRICITY":"0.00026700","TLE_LINE1":"1 55414U 23014Z   23100.68803401  .00002521  00000-0  22709-4 0  9999","ARG_OF_PERICENTER":"262.9982","COUNTRY_CODE":"US","PERIOD":"91.723","INCLINATION":"69.9980","FILE":"3885363","SEMIMAJOR_AXIS":"6737.201","RCS_SIZE":"LARGE","SITE":"AFWTR","OBJECT_TYPE":"PAYLOAD","GP_ID":"229881943","NORAD_CAT_ID":"55414","REF_FRAME":"TEME","EPHEMERIS_TYPE":"0","RA_OF_ASC_NODE":"255.6915","LAUNCH_DATE":"2023-01-31"},{"PERIOD":"91.723","INCLINATION":"69.9985","ARG_OF_PERICENTER":"275.4740","ECCENTRICITY":"0.00038970","TLE_LINE1":"1 55415U 23014AA  23100.68761441  .00006576  00000-0  56358-4 0  9998","COUNTRY_CODE":"US","FILE":"3885363","REF_FRAME":"TEME","NORAD_CAT_ID":"55415","SITE":"AFWTR","OBJECT_TYPE":"PAYLOAD","RCS_SIZE":"LARGE","SEMIMAJOR_AXIS":"6737.188","GP_ID":"229882190","LAUNCH_DATE":"2023-01-31","EPHEMERIS_TYPE":"0","RA_OF_ASC_NODE":"255.6942","TIME_SYSTEM":"UTC","MEAN_MOTION_DDOT":"0.0000000000000","CENTER_NAME":"EARTH","TLE_LINE2":"2 55415  69.9985 255.6942 0003897 275.4740  84.6011 15.69946246 11977","BSTAR":"0.00005635800000","APOAPSIS":"361.678","PERIAPSIS":"356.427","MEAN_ANOMALY":"84.6011","MEAN_ELEMENT_THEORY":"SGP4","ELEMENT_SET_NO":"999","MEAN_MOTION":"15.69946246","EPOCH":"2023-04-10T16:30:09.885024","CLASSIFICATION_TYPE":"U","MEAN_MOTION_DOT":"0.00006576","DECAY_DATE":null,"OBJECT_ID":"2023-014AA","REV_AT_EPOCH":"1197","OBJECT_NAME":"STARLINK-5618"},{"SEMIMAJOR_AXIS":"6737.165","RCS_SIZE":"LARGE","SITE":"AFWTR","OBJECT_TYPE":"PAYLOAD","GP_ID":"229882945","NORAD_CAT_ID":"55416","REF_FRAME":"TEME","EPHEMERIS_TYPE":"0","RA_OF_ASC_NODE":"255.6943","LAUNCH_DATE":"2023-01-31","ECCENTRICITY":"0.00034660","TLE_LINE1":"1 55416U 23014AB  23100.68825035  .00017134  00000-0  14379-3 0  9997","ARG_OF_PERICENTER":"272.5883","COUNTRY_CODE":"US","PERIOD":"91.722","INCLINATION":"70.0009","FILE":"3885363","EPOCH":"2023-04-10T16:31:04.830240","CLASSIFICATION_TYPE":"U","MEAN_MOTION":"15.69954180","ELEMENT_SET_NO":"999","DECAY_DATE":null,"OBJECT_ID":"2023-014AB","OBJECT_NAME":"STARLINK-5624","REV_AT_EPOCH":"1197","MEAN_MOTION_DOT":"0.00017134","TLE_LINE2":"2 55416  70.0009 255.6943 0003466 272.5883  87.4916 15.69954180 11978","TIME_SYSTEM":"UTC","MEAN_MOTION_DDOT":"0.0000000000000","CENTER_NAME":"EARTH","MEAN_ELEMENT_THEORY":"SGP4","APOAPSIS":"361.365","BSTAR":"0.00014379000000","PERIAPSIS":"356.695","MEAN_ANOMALY":"87.4916"},{"NORAD_CAT_ID":"55417","REF_FRAME":"TEME","OBJECT_TYPE":"PAYLOAD","SITE":"AFWTR","RCS_SIZE":"LARGE","SEMIMAJOR_AXIS":"6737.181","GP_ID":"229882685","LAUNCH_DATE":"2023-01-31","RA_OF_ASC_NODE":"255.6946","EPHEMERIS_TYPE":"0","PERIOD":"91.723","INCLINATION":"69.9992","ARG_OF_PERICENTER":"276.8155","TLE_LINE1":"1 55417U 23014AC  23100.68792964 -.00000691  00000-0 -39641-5 0  9995","ECCENTRICITY":"0.00043070","COUNTRY_CODE":"US","FILE":"3885363","ELEMENT_SET_NO":"999","MEAN_MOTION":"15.69948499","CLASSIFICATION_TYPE":"U","EPOCH":"2023-04-10T16:30:37.120896","MEAN_MOTION_DOT":"-0.00000691","DECAY_DATE":null,"OBJECT_ID":"2023-014AC","REV_AT_EPOCH":"1197","OBJECT_NAME":"STARLINK-5616","TIME_SYSTEM":"UTC","MEAN_MOTION_DDOT":"0.0000000000000","CENTER_NAME":"EARTH","TLE_LINE2":"2 55417  69.9992 255.6946 0004307 276.8155  83.2551 15.69948499 11979","BSTAR":"-0.00000396410000","APOAPSIS":"361.948","PERIAPSIS":"356.145","MEAN_ANOMALY":"83.2551","MEAN_ELEMENT_THEORY":"SGP4"},{"ARG_OF_PERICENTER":"276.6260","ECCENTRICITY":"0.00044410","TLE_LINE1":"1 55418U 23014AD  23100.68846186  .00015698  00000-0  13192-3 0  9994","COUNTRY_CODE":"US","PERIOD":"91.723","INCLINATION":"70.0009","FILE":"3885363","OBJECT_TYPE":"PAYLOAD","SITE":"AFWTR","SEMIMAJOR_AXIS":"6737.183","RCS_SIZE":"LARGE","GP_ID":"229881444","NORAD_CAT_ID":"55418","REF_FRAME":"TEME","EPHEMERIS_TYPE":"0","RA_OF_ASC_NODE":"255.6977","LAUNCH_DATE":"2023-01-31","TLE_LINE2":"2 55418  70.0009 255.6977 0004441 276.6260  83.4430 15.69947816 11970","MEAN_MOTION_DDOT":"0.0000000000000","TIME_SYSTEM":"UTC","CENTER_NAME":"EARTH","MEAN_ELEMENT_THEORY":"SGP4","BSTAR":"0.00013192000000","APOAPSIS":"362.040","MEAN_ANOMALY":"83.4430","PERIAPSIS":"356.056","CLASSIFICATION_TYPE":"U","EPOCH":"2023-04-10T16:31:23.104704","ELEMENT_SET_NO":"999","MEAN_MOTION":"15.69947816","OBJECT_ID":"2023-014AD","DECAY_DATE":null,"REV_AT_EPOCH":"1197","OBJECT_NAME":"STARLINK-5030","MEAN_MOTION_DOT":"0.00015698"},{"OBJECT_ID":"2023-014AE","DECAY_DATE":null,"OBJECT_NAME":"STARLINK-5629","REV_AT_EPOCH":"1200","MEAN_MOTION_DOT":"0.00022351","EPOCH":"2023-04-10T21:06:11.388672","CLASSIFICATION_TYPE":"U","MEAN_MOTION":"15.69941071","ELEMENT_SET_NO":"999","MEAN_ELEMENT_THEORY":"SGP4","APOAPSIS":"361.578","BSTAR":"0.00018701000000","PERIAPSIS":"356.557","MEAN_ANOMALY":"83.4445","TLE_LINE2":"2 55419  70.0004 255.1563 0003726 276.6326  83.4445 15.69941071 12008","MEAN_MOTION_DDOT":"0.0000000000000","TIME_SYSTEM":"UTC","CENTER_NAME":"EARTH","EPHEMERIS_TYPE":"0","RA_OF_ASC_NODE":"255.1563","LAUNCH_DATE":"2023-01-31","SEMIMAJOR_AXIS":"6737.203","RCS_SIZE":"LARGE","SITE":"AFWTR","OBJECT_TYPE":"PAYLOAD","GP_ID":"229881691","NORAD_CAT_ID":"55419","REF_FRAME":"TEME","FILE":"3885363","ECCENTRICITY":"0.00037260","TLE_LINE1":"1 55419U 23014AE  23100.87929848  .00022351  00000-0  18701-3 0  9998","ARG_OF_PERICENTER":"276.6326","COUNTRY_CODE":"US","PERIOD":"91.723","INCLINATION":"70.0004"},{"REF_FRAME":"TEME","NORAD_CAT_ID":"55420","SITE":"AFWTR","OBJECT_TYPE":"PAYLOAD","RCS_SIZE":"LARGE","SEMIMAJOR_AXIS":"6737.219","GP_ID":"229882446","LAUNCH_DATE":"2023-01-31","RA_OF_ASC_NODE":"255.7070","EPHEMERIS_TYPE":"0","PERIOD":"91.724","INCLINATION":"69.9986","ARG_OF_PERICENTER":"281.7385","TLE_LINE1":"1 55420U 23014AF  23100.68508791  .00000477  00000-0  57380-5 0  9992","ECCENTRICITY":"0.00038790","COUNTRY_CODE":"US","FILE":"3885363","ELEMENT_SET_NO":"999","MEAN_MOTION":"15.69935400","CLASSIFICATION_TYPE":"U","EPOCH":"2023-04-10T16:26:31.595424","MEAN_MOTION_DOT":"0.00000477","OBJECT_ID":"2023-014AF","DECAY_DATE":null,"REV_AT_EPOCH":"1197","OBJECT_NAME":"STARLINK-5604","MEAN_MOTION_DDOT":"0.0000000000000","TIME_SYSTEM":"UTC","CENTER_NAME":"EARTH","TLE_LINE2":"2 55420  69.9986 255.7070 0003879 281.7385  78.3376 15.69935400 11976","BSTAR":"0.00000573800000","APOAPSIS":"361.697","PERIAPSIS":"356.470","MEAN_ANOMALY":"78.3376","MEAN_ELEMENT_THEORY":"SGP4"},{"FILE":"3885363","COUNTRY_CODE":"US","TLE_LINE1":"1 55421U 23014AG  23100.68835126  .00001013  00000-0  10187-4 0  9998","ECCENTRICITY":"0.00035040","ARG_OF_PERICENTER":"265.7801","INCLINATION":"69.9976","PERIOD":"91.723","EPHEMERIS_TYPE":"0","RA_OF_ASC_NODE":"255.6946","LAUNCH_DATE":"2023-01-31","GP_ID":"229883185","SEMIMAJOR_AXIS":"6737.203","RCS_SIZE":"LARGE","OBJECT_TYPE":"PAYLOAD","SITE":"AFWTR","REF_FRAME":"TEME","NORAD_CAT_ID":"55421","MEAN_ELEMENT_THEORY":"SGP4","PERIAPSIS":"356.707","MEAN_ANOMALY":"94.2995","APOAPSIS":"361.429","BSTAR":"0.00001018700000","TLE_LINE2":"2 55421  69.9976 255.6946 0003504 265.7801  94.2995 15.69940901 11973","CENTER_NAME":"EARTH","MEAN_MOTION_DDOT":"0.0000000000000","TIME_SYSTEM":"UTC","OBJECT_NAME":"STARLINK-5598","REV_AT_EPOCH":"1197","DECAY_DATE":null,"OBJECT_ID":"2023-014AG","MEAN_MOTION_DOT":"0.00001013","EPOCH":"2023-04-10T16:31:13.548864","CLASSIFICATION_TYPE":"U","MEAN_MOTION":"15.69940901","ELEMENT_SET_NO":"999"},{"MEAN_ELEMENT_THEORY":"SGP4","APOAPSIS":"361.142","BSTAR":"0.00003142700000","MEAN_ANOMALY":"87.7577","PERIAPSIS":"357.069","TLE_LINE2":"2 55422  70.0005 256.4142 0003023 272.3272  87.7577 15.69927807 11938","MEAN_MOTION_DDOT":"0.0000000000000","CENTER_NAME":"EARTH","TIME_SYSTEM":"UTC","DECAY_DATE":null,"OBJECT_ID":"2023-014AH","OBJECT_NAME":"STARLINK-5006","REV_AT_EPOCH":"1193","MEAN_MOTION_DOT":"0.00003568","EPOCH":"2023-04-10T10:25:08.599584","CLASSIFICATION_TYPE":"U","MEAN_MOTION":"15.69927807","ELEMENT_SET_NO":"999","FILE":"3885195","ECCENTRICITY":"0.00030230","TLE_LINE1":"1 55422U 23014AH  23100.43412731  .00003568  00000-0  31427-4 0  9992","ARG_OF_PERICENTER":"272.3272","COUNTRY_CODE":"US","PERIOD":"91.724","INCLINATION":"70.0005","RA_OF_ASC_NODE":"256.4142","EPHEMERIS_TYPE":"0","LAUNCH_DATE":"2023-01-31","RCS_SIZE":"LARGE","SEMIMAJOR_AXIS":"6737.241","SITE":"AFWTR","OBJECT_TYPE":"PAYLOAD","GP_ID":"229852233","NORAD_CAT_ID":"55422","REF_FRAME":"TEME"}];
